NORAD_CAT_ID,OBJECT_NAME,OBJECT_TYPE,EPOCH,MEAN_MOTION,ECCENTRICITY,INCLINATION,RA_OF_ASC_NODE,ARG_OF_PERICENTER,MEAN_ANOMALY,BSTAR,MEAN_MOTION_DOT,MEAN_MOTION_DDOT,TLE_LINE0,TLE_LINE1,TLE_LINE2,SEMIMAJOR_AXIS,PERIOD,APOGEE,PERIGEE,DECAYED
54208.0,STARLINK-5255,PAYLOAD,2023-09-18 17:51:07,15.08841026,0.0001216,53.2174,62.6476,88.8167,271.2965,8.7317e-05,1.102e-05,0.0,0 STARLINK-5255,1 54208U 22141BD  23261.74383526  .00001102  00000-0  87317-4 0  9995,2 54208  53.2174  62.6476 0001216  88.8167 271.2965 15.08841026 50037,6917.877,95.437,540.583,538.901,0.0
54208.0,STARLINK-5255,PAYLOAD,2023-09-19 09:44:58,15.0884343,0.0001197,53.2165,59.6738,80.6051,279.5076,9.4926e-05,1.223e-05,0.0,0 STARLINK-5255,1 54208U 22141BD  23262.40623438  .00001223  00000-0  94926-4 0  9996,2 54208  53.2165  59.6738 0001197  80.6051 279.5076 15.08843430 50365,6917.87,95.437,540.563,538.907,0.0
54208.0,STARLINK-5255,PAYLOAD,2023-09-19 17:41:53,15.08855573,0.000116,53.2163,58.1872,85.7812,274.3312,0.00036272,5.492e-05,0.0,0 STARLINK-5255,1 54208U 22141BD  23262.73742893  .00005492  00000-0  36272-3 0  9990,2 54208  53.2163  58.1872 0001160  85.7812 274.3312 15.08855573 50410,6917.833,95.437,540.5,538.895,0.0
54208.0,STARLINK-5255,PAYLOAD,2023-09-20 14:21:55,15.08833939,0.0001266,53.2161,54.3218,89.279,270.8347,-5.0263e-06,-3.68e-06,0.0,0 STARLINK-5255,1 54208U 22141BD  23263.59856067 -.00000368  00000-0 -50263-5 0  9991,2 54208  53.2161  54.3218 0001266  89.2790 270.8347 15.08833939 50311,6917.899,95.438,540.64,538.888,0.0
54208.0,STARLINK-5255,PAYLOAD,2023-09-20 17:32:41,15.08829021,0.0001155,53.2166,53.7265,93.0693,267.0431,-0.00010994,-2.037e-05,0.0,0 STARLINK-5255,1 54208U 22141BD  23263.73104150 -.00002037  00000-0 -10994-3 0  9996,2 54208  53.2166  53.7265 0001155  93.0693 267.0431 15.08829021 50569,6917.914,95.438,540.578,538.98,0.0
54208.0,STARLINK-5255,PAYLOAD,2023-09-20 19:08:05,15.08831732,0.0001187,53.2167,53.4293,90.9275,269.1853,-4.3113e-05,-9.74e-06,0.0,0 STARLINK-5255,1 54208U 22141BD  23263.79728204 -.00000974  00000-0 -43113-4 0  9992,2 54208  53.2167  53.4293 0001187  90.9275 269.1853 15.08831732 50344,6917.906,95.438,540.592,538.95,0.0
54208.0,STARLINK-5255,PAYLOAD,2023-09-21 09:26:33,15.08838892,0.0001146,53.2166,50.7526,106.0659,254.0459,0.00036939,5.596e-05,0.0,0 STARLINK-5255,1 54208U 22141BD  23264.39344295  .00005596  00000-0  36939-3 0  9993,2 54208  53.2166  50.7526 0001146 106.0659 254.0459 15.08838892 50666,6917.884,95.438,540.542,538.956,0.0
54208.0,STARLINK-5255,PAYLOAD,2023-09-21 12:37:19,15.0884572,0.0001131,53.2166,50.1575,108.7843,251.3272,0.00059926,9.264e-05,0.0,0 STARLINK-5255,1 54208U 22141BD  23264.52592092  .00009264  00000-0  59926-3 0  9995,2 54208  53.2166  50.1575 0001131 108.7843 251.3272 15.08845720 50450,6917.863,95.437,540.51,538.945,0.0
54208.0,STARLINK-5255,PAYLOAD,2023-09-21 17:23:28,15.08855497,0.0001108,53.2164,49.2661,106.9721,253.1393,0.00079821,0.00012444,0.0,0 STARLINK-5255,1 54208U 22141BD  23264.72463874  .00012444  00000-0  79821-3 0  9992,2 54208  53.2164  49.2661 0001108 106.9721 253.1393 15.08855497 50717,6917.833,95.437,540.465,538.932,0.0
54208.0,STARLINK-5255,PAYLOAD,2023-09-22 02:55:47,15.08847499,0.0001174,53.2165,47.4835,93.513,266.5996,0.00029048,4.339e-05,0.0,0 STARLINK-5255,1 54208U 22141BD  23265.12207915  .00004339  00000-0  29048-3 0  9999,2 54208  53.2165  47.4835 0001174  93.5130 266.5996 15.08847499 50775,6917.857,95.437,540.535,538.91,0.0
54208.0,STARLINK-5255,PAYLOAD,2023-09-22 14:03:29,15.08846496,0.0001075,53.2172,45.3977,103.0486,257.0626,0.0002606,3.863e-05,0.0,0 STARLINK-5255,1 54208U 22141BD  23265.58575909  .00003863  00000-0  26060-3 0  9992,2 54208  53.2172  45.3977 0001075 103.0486 257.0626 15.08846496 50612,6917.861,95.437,540.469,538.982,0.0
54208.0,STARLINK-5255,PAYLOAD,2023-09-22 17:14:15,15.08853102,0.000108,53.2167,44.8036,100.7123,259.3991,0.00038793,5.894e-05,0.0,0 STARLINK-5255,1 54208U 22141BD  23265.71823658  .00005894  00000-0  38793-3 0  9996,2 54208  53.2167  44.8036 0001080 100.7123 259.3991 15.08853102 50638,6917.84,95.437,540.452,538.958,0.0
54208.0,STARLINK-5255,PAYLOAD,2023-09-23 13:54:16,15.08845256,9.85e-05,53.2163,40.9397,108.2847,251.8252,0.00028018,4.175e-05,0.0,0 STARLINK-5255,1 54208U 22141BD  23266.57935651  .00004175  00000-0  28018-3 0  9998,2 54208  53.2163  40.9397 0000985 108.2847 251.8252 15.08845256 50762,6917.864,95.437,540.411,539.048,0.0
54208.0,STARLINK-5255,PAYLOAD,2023-09-23 15:29:39,15.0884892,0.000115,53.2165,40.6421,107.2891,252.8227,0.00040651,6.189e-05,0.0,0 STARLINK-5255,1 54208U 22141BD  23266.64559587  .00006189  00000-0  40651-3 0  9990,2 54208  53.2165  40.6421 0001150 107.2891 252.8227 15.08848920 51004,6917.853,95.437,540.514,538.923,0.0
54208.0,STARLINK-5255,PAYLOAD,2023-09-24 08:58:54,15.08843932,0.0001007,53.216,37.371,87.0954,273.0153,0.00025676,3.801e-05,0.0,0 STARLINK-5255,1 54208U 22141BD  23267.37423798  .00003801  00000-0  25676-3 0  9993,2 54208  53.2160  37.3710 0001007  87.0954 273.0153 15.08843932 51112,6917.868,95.437,540.43,539.037,0.0
54208.0,STARLINK-5255,PAYLOAD,2023-09-24 13:45:03,15.08843618,0.0001235,53.2167,36.48,82.7378,277.3755,0.0001685,2.395e-05,0.0,0 STARLINK-5255,1 54208U 22141BD  23267.57295867  .00002395  00000-0  16850-3 0  9990,2 54208  53.2167  36.4800 0001235  82.7378 277.3755 15.08843618 50917,6917.869,95.437,540.589,538.88,0.0
54208.0,STARLINK-5255,PAYLOAD,2023-09-24 15:20:26,15.08847162,0.0001198,53.2168,36.1811,90.74,269.3729,0.00018827,2.71e-05,0.0,0 STARLINK-5255,1 54208U 22141BD  23267.63919653  .00002710  00000-0  18827-3 0  9990,2 54208  53.2168  36.1811 0001198  90.7400 269.3729 15.08847162 50921,6917.858,95.437,540.552,538.895,0.0
54208.0,STARLINK-5255,PAYLOAD,2023-09-25 13:35:50,15.08839825,0.0001308,53.2177,32.0171,85.0905,275.0236,8.6435e-05,1.088e-05,0.0,0 STARLINK-5255,1 54208U 22141BD  23268.56656032  .00001088  00000-0  86435-4 0  9990,2 54208  53.2177  32.0171 0001308  85.0905 275.0236 15.08839825 51065,6917.881,95.438,540.651,538.841,0.0
54208.0,STARLINK-5255,PAYLOAD,2023-09-25 15:11:13,15.08847092,0.0001293,53.2173,31.7223,91.7182,268.3959,0.0001865,2.682e-05,0.0,0 STARLINK-5255,1 54208U 22141BD  23268.63279725  .00002682  00000-0  18650-3 0  9992,2 54208  53.2173  31.7223 0001293  91.7182 268.3959 15.08847092 51308,6917.859,95.437,540.618,538.829,0.0
54208.0,STARLINK-5255,PAYLOAD,2023-09-26 13:26:38,15.08835329,0.0001256,53.2179,27.5578,76.9822,283.131,7.7673e-05,9.48e-06,0.0,0 STARLINK-5255,1 54208U 22141BD  23269.56016616  .00000948  00000-0  77673-4 0  9997,2 54208  53.2179  27.5578 0001256  76.9822 283.1310 15.08835329 51211,6917.895,95.438,540.629,538.891,0.0
54208.0,STARLINK-5255,PAYLOAD,2023-09-26 15:02:01,15.08846509,0.0001232,53.2174,27.2604,101.9899,258.1232,0.00027124,4.032e-05,0.0,0 STARLINK-5255,1 54208U 22141BD  23269.62640291  .00004032  00000-0  27124-3 0  9999,2 54208  53.2174  27.2604 0001232 101.9899 258.1232 15.08846509 51453,6917.86,95.437,540.578,538.873,0.0
54208.0,STARLINK-5255,PAYLOAD,2023-09-26 18:12:47,15.0884599,0.0001251,53.217,26.6664,99.662,260.4514,0.00018268,2.621e-05,0.0,0 STARLINK-5255,1 54208U 22141BD  23269.75888161  .00002621  00000-0  18268-3 0  9994,2 54208  53.2170  26.6664 0001251  99.6620 260.4514 15.08845990 51243,6917.862,95.437,540.593,538.862,0.0
54208.0,STARLINK-5255,PAYLOAD,2023-09-27 13:17:25,15.0883357,0.0001295,53.2173,23.094,91.1723,268.9418,-8.0145e-05,-1.563e-05,0.0,0 STARLINK-5255,1 54208U 22141BD  23270.55376958 -.00001563  00000-0 -80145-4 0  9990,2 54208  53.2173  23.0940 0001295  91.1723 268.9418 15.08833570 51363,6917.9,95.438,540.661,538.869,0.0
54208.0,STARLINK-5255,PAYLOAD,2023-09-27 14:52:48,15.08832668,0.0001431,53.218,22.805,108.0803,252.0345,-5.4118e-05,-1.149e-05,0.0,0 STARLINK-5255,1 54208U 22141BD  23270.62001051 -.00001149  00000-0 -54118-4 0  9998,2 54208  53.2180  22.8050 0001431 108.0803 252.0345 15.08832668 51606,6917.903,95.438,540.758,538.778,0.0
54208.0,STARLINK-5255,PAYLOAD,2023-09-28 11:32:49,15.08845081,0.0001352,53.2181,18.9377,106.374,253.7401,8.6431e-05,1.088e-05,0.0,0 STARLINK-5255,1 54208U 22141BD  23271.48112874  .00001088  00000-0  86431-4 0  9992,2 54208  53.2181  18.9377 0001352 106.3740 253.7401 15.08845081 51736,6917.865,95.437,540.665,538.795,0.0
54208.0,STARLINK-5255,PAYLOAD,2023-09-28 14:43:35,15.08853107,0.0001293,53.2179,18.3433,101.9619,258.1518,0.00022142,3.239e-05,0.0,0 STARLINK-5255,1 54208U 22141BD  23271.61360533  .00003239  00000-0  22142-3 0  9992,2 54208  53.2179  18.3433 0001293 101.9619 258.1518 15.08853107 51523,6917.84,95.437,540.6,538.811,0.0
54208.0,STARLINK-5255,PAYLOAD,2023-09-28 16:18:58,15.08855265,0.000141,53.218,18.0466,108.6312,251.4833,0.00038488,5.845e-05,0.0,0 STARLINK-5255,1 54208U 22141BD  23271.67984546  .00005845  00000-0  38488-3 0  9999,2 54208  53.2180  18.0466 0001410 108.6312 251.4833 15.08855265 51537,6917.834,95.437,540.674,538.723,0.0
54208.0,STARLINK-5255,PAYLOAD,2023-09-29 06:37:26,15.0884221,0.0001688,53.2182,15.367,118.5733,241.5429,0.00014289,1.987e-05,0.0,0 STARLINK-5255,1 54208U 22141BD  23272.27600625  .00001987  00000-0  14289-3 0  9995,2 54208  53.2182  15.3670 0001688 118.5733 241.5429 15.08842210 51852,6917.874,95.437,540.906,538.571,0.0
54208.0,STARLINK-5255,PAYLOAD,2023-09-29 14:34:22,15.08847743,0.0001596,53.2182,13.8824,69.0788,291.0375,0.00021894,3.199e-05,0.0,0 STARLINK-5255,1 54208U 22141BD  23272.60721010  .00003199  00000-0  21894-3 0  9991,2 54208  53.2182  13.8824 0001596  69.0788 291.0375 15.08847743 51670,6917.857,95.437,540.826,538.618,0.0
54208.0,STARLINK-5255,PAYLOAD,2023-09-30 00:06:41,15.08848607,0.0001376,53.2181,12.0973,82.6852,277.4296,0.00018914,2.724e-05,0.0,0 STARLINK-5255,1 54208U 22141BD  23273.00464733  .00002724  00000-0  18914-3 0  9994,2 54208  53.2181  12.0973 0001376  82.6852 277.4296 15.08848607 51731,6917.854,95.437,540.671,538.767,0.0
